NORAD_CAT_ID,OBJECT_NAME,OBJECT_TYPE,EPOCH,MEAN_MOTION,ECCENTRICITY,INCLINATION,RA_OF_ASC_NODE,ARG_OF_PERICENTER,MEAN_ANOMALY,BSTAR,MEAN_MOTION_DOT,MEAN_MOTION_DDOT,TLE_LINE0,TLE_LINE1,TLE_LINE2,SEMIMAJOR_AXIS,PERIOD,APOGEE,PERIGEE,DECAYED
52275.0,STARLINK-3784,PAYLOAD,2022-09-06 14:00:01,15.08819646,0.0001681,53.2194,95.7329,62.4664,244.6861,0.0016500999999999,0.00026056,0.0,0 STARLINK-3784,1 52275U 22041Q   22249.58334491  .00026056  00000-0  16501-2 0  9990,2 52275  53.2194  95.7329 0001681  62.4664 244.6861 15.08819646  1309,6917.943,95.439,540.971,538.645,0.0
52275.0,STARLINK-3784,PAYLOAD,2022-09-06 22:00:00,15.08817652,0.000185,53.2194,94.2385,55.7447,262.9856,0.0010603,0.00016617,0.0,0 STARLINK-3784,1 52275U 22041Q   22249.91667824  .00016617  00000-0  10603-2 0  9995,2 52275  53.2194  94.2385 0001850  55.7447 262.9856 15.08817652 22379,6917.949000000001,95.439,541.094,538.534,0.0
52275.0,STARLINK-3784,PAYLOAD,2022-09-07 14:00:01,15.08841267,0.0001685,53.2194,91.2443,63.7857,278.1093,0.0010599,0.00016621,0.0,0 STARLINK-3784,1 52275U 22041Q   22250.58334491  .00016621  00000-0  10599-2 0  9990,2 52275  53.2194  91.2443 0001685  63.7857 278.1093 15.08841267  1302,6917.877,95.437,540.9069999999998,538.576,0.0
52275.0,STARLINK-3784,PAYLOAD,2022-09-07 22:00:00,15.08835116,0.0001813,53.2192,89.7497,56.728,296.7705,0.0010490999999999,0.00016446,0.0,0 STARLINK-3784,1 52275U 22041Q   22250.91667824  .00016446  00000-0  10491-2 0  9992,2 52275  53.2192  89.7497 0001813  56.7280 296.7705 15.08835116  1308,6917.895,95.438,541.015,538.506,0.0
52275.0,STARLINK-3784,PAYLOAD,2022-09-08 06:00:00,15.088655599999996,0.0001647,53.2188,88.25200000000002,58.1317,306.9673,-0.0039713,-0.00062983,0.0,0 STARLINK-3784,1 52275U 22041Q   22251.25001157 -.00062983  00000-0 -39713-2 0  9998,2 52275  53.2188  88.2520 0001647  58.1317 306.9673 15.08865560 22572,6917.802,95.436,540.807,538.528,0.0
52275.0,STARLINK-3784,PAYLOAD,2022-09-08 14:00:01,15.08835627,0.0001564999999999,53.219,86.7554,63.1317,313.5608,0.00048782,7.483e-05,0.0,0 STARLINK-3784,1 52275U 22041Q   22251.58334491  .00007483  00000-0  48782-3 0  9993,2 52275  53.2190  86.7554 0001565  63.1317 313.5608 15.08835627  1301,6917.894,95.438,540.841,538.6759999999998,0.0
52275.0,STARLINK-3784,PAYLOAD,2022-09-08 22:00:00,15.08823946,0.0001713,53.2187,85.2606,56.07899999999999,332.2112,0.0017081,0.00026989,0.0,0 STARLINK-3784,1 52275U 22041Q   22251.91667824  .00026989  00000-0  17081-2 0  9998,2 52275  53.2187  85.2606 0001713  56.0790 332.2112 15.08823946 22672,6917.929,95.439,540.98,538.609,0.0
52275.0,STARLINK-3784,PAYLOAD,2022-09-09 14:00:01,15.08868589,0.0001549,53.2183,82.2663,63.2579,348.2169,-0.0017512,-0.00028072,0.0,0 STARLINK-3784,1 52275U 22041Q   22252.58334491 -.00028072  00000-0 -17512-2 0  9999,2 52275  53.2183  82.2663 0001549  63.2579 348.2169 15.08868589  1308,6917.793000000002,95.436,540.73,538.586,0.0
52275.0,STARLINK-3784,PAYLOAD,2022-09-09 22:00:00,15.08818573,0.0001628,53.2182,80.7714,54.8526,8.2475,0.0016323,0.0002577,0.0,0 STARLINK-3784,1 52275U 22041Q   22252.91667824  .00025770  00000-0  16323-2 0  9994,2 52275  53.2182  80.7714 0001628  54.8526   8.2475 15.08818573  1304,6917.946,95.439,540.937,538.685,0.0
52275.0,STARLINK-3784,PAYLOAD,2022-09-10 14:00:01,15.0885344,0.0001517,53.2179,77.7769,61.346,24.9186,-0.00065003,-0.00010622,0.0,0 STARLINK-3784,1 52275U 22041Q   22253.58334491 -.00010622  00000-0 -65003-3 0  9991,2 52275  53.2179  77.7769 0001517  61.3460  24.9186 15.08853440  1309,6917.839,95.437,540.754,538.655,0.0
52275.0,STARLINK-3784,PAYLOAD,2022-09-10 22:00:00,15.0882577,0.0001592,53.218,76.282,52.0831,45.7959,0.00036055,5.453e-05,0.0,0 STARLINK-3784,1 52275U 22041Q   22253.91667824  .00005453  00000-0  36055-3 0  9996,2 52275  53.2180  76.2820 0001592  52.0831  45.7959 15.08825770 22986,6917.924,95.438,540.89,538.688,0.0
52275.0,STARLINK-3784,PAYLOAD,2022-09-11 14:00:01,15.08850449,0.0001504,53.2182,73.2875,58.00899999999999,63.0345,-0.00047978,-7.918e-05,0.0,0 STARLINK-3784,1 52275U 22041Q   22254.58334491 -.00007918  00000-0 -47978-3 0  9997,2 52275  53.2182  73.2875 0001504  58.0090  63.0345 15.08850449  1307,6917.848000000001,95.437,540.754,538.673,0.0
52275.0,STARLINK-3784,PAYLOAD,2022-09-11 22:00:00,15.0883169,0.0001668,53.2183,71.7927,50.2894,82.36200000000002,0.0016589,0.00026206,0.0,0 STARLINK-3784,1 52275U 22041Q   22254.91667824  .00026206  00000-0  16589-2 0  9995,2 52275  53.2183  71.7927 0001668  50.2894  82.3620 15.08831690  1303,6917.906,95.438,540.925,538.617,0.0
52275.0,STARLINK-3784,PAYLOAD,2022-09-12 06:00:00,15.08829728,0.0001592,53.2186,70.2946,55.9666,88.2855,-0.00017829,-3.124e-05,0.0,0 STARLINK-3784,1 52275U 22041Q   22255.25001157 -.00003124  00000-0 -17829-3 0  9999,2 52275  53.2186  70.2946 0001592  55.9666  88.2855 15.08829728 23180,6917.9119999999975,95.438,540.878,538.675,0.0
52275.0,STARLINK-3784,PAYLOAD,2022-09-12 14:00:01,15.08848292,0.0001686999999999,53.2189,68.7983,58.6381,97.1911,-0.00066168,-0.00010806,0.0,0 STARLINK-3784,1 52275U 22041Q   22255.58334491 -.00010806  00000-0 -66168-3 0  9990,2 52275  53.2189  68.7983 0001687  58.6381  97.1911 15.08848292  1304,6917.855,95.437,540.887,538.553,0.0
52275.0,STARLINK-3784,PAYLOAD,2022-09-12 22:00:00,15.08829986,0.0001792,53.219,67.3035,50.4842,116.9501,0.0015995,0.00025253,0.0,0 STARLINK-3784,1 52275U 22041Q   22255.91667824  .00025253  00000-0  15995-2 0  9997,2 52275  53.2190  67.3035 0001792  50.4842 116.9501 15.08829986  1302,6917.911,95.438,541.016,538.536,0.0
52275.0,STARLINK-3784,PAYLOAD,2022-09-13 06:00:00,15.08825833,0.0001588,53.2193,65.8055,53.3447,125.6942,0.00094555,0.00014787,0.0,0 STARLINK-3784,1 52275U 22041Q   22256.25001157  .00014787  00000-0  94555-3 0  9996,2 52275  53.2193  65.8055 0001588  53.3447 125.6942 15.08825833 23336,6917.924,95.438,540.887,538.69,0.0
52275.0,STARLINK-3784,PAYLOAD,2022-09-13 14:00:01,15.0885725,0.0001633,53.2197,64.3095,54.6752,135.9428,-0.00099478,-0.00016093,0.0,0 STARLINK-3784,1 52275U 22041Q   22256.58334491 -.00016093  00000-0 -99478-3 0  9995,2 52275  53.2197  64.3095 0001633  54.6752 135.9428 15.08857250  1306,6917.828,95.436,540.822,538.563,0.0
52275.0,STARLINK-3784,PAYLOAD,2022-09-13 22:00:00,15.08816803,0.0001723,53.2197,62.8146,46.5357,155.6874,0.0015290999999999,0.00024116,0.0,0 STARLINK-3784,1 52275U 22041Q   22256.91667824  .00024116  00000-0  15291-2 0  9994,2 52275  53.2197  62.8146 0001723  46.5357 155.6874 15.08816803  1300,6917.951,95.439,541.008,538.624,0.0
52275.0,STARLINK-3784,PAYLOAD,2022-09-14 06:00:00,15.08816208,0.0001524,53.22,61.3166,50.9766,162.8322,0.0016436,0.0002595,0.0,0 STARLINK-3784,1 52275U 22041Q   22257.25001157  .00025950  00000-0  16436-2 0  9992,2 52275  53.2200  61.3166 0001524  50.9766 162.8322 15.08816208 23483,6917.953,95.439,540.872,538.764,0.0
52275.0,STARLINK-3784,PAYLOAD,2022-09-14 14:00:01,15.08853821,0.0001599,53.2203,59.82100000000001,52.84,172.5427,-0.0011335,-0.00018289,0.0,0 STARLINK-3784,1 52275U 22041Q   22257.58334491 -.00018289  00000-0 -11335-2 0  9990,2 52275  53.2203  59.8210 0001599  52.8400 172.5427 15.08853821  1309,6917.8380000000025,95.437,540.809,538.597,0.0
52275.0,STARLINK-3784,PAYLOAD,2022-09-14 22:00:00,15.08825139,0.0001764,53.2201,58.3259,47.1572,189.8342,0.00083816,0.00013071,0.0,0 STARLINK-3784,1 52275U 22041Q   22257.91667824  .00013071  00000-0  83816-3 0  9992,2 52275  53.2201  58.3259 0001764  47.1572 189.8342 15.08825139  1303,6917.926,95.438,541.011,538.57,0.0
52275.0,STARLINK-3784,PAYLOAD,2022-09-15 06:00:00,15.08812735,0.0001629,53.2203,56.8279,53.8117,194.7714,0.0023013,0.000365,0.0,0 STARLINK-3784,1 52275U 22041Q   22258.25001157  .00036500  00000-0  23013-2 0  9995,2 52275  53.2203  56.8279 0001629  53.8117 194.7714 15.08812735 23635,6917.964,95.439,540.956,538.702,0.0
52275.0,STARLINK-3784,PAYLOAD,2022-09-15 14:00:01,15.0885455,0.0001671,53.2204,55.3326,54.0046,206.153,-0.00082379,-0.0001338,0.0,0 STARLINK-3784,1 52275U 22041Q   22258.58334491 -.00013380  00000-0 -82379-3 0  9995,2 52275  53.2204  55.3326 0001671  54.0046 206.1530 15.08854550  1309,6917.8359999999975,95.437,540.857,538.545,0.0
52275.0,STARLINK-3784,PAYLOAD,2022-09-15 20:48:02,15.08842481,0.0001678,53.2201,54.0604,54.019,306.0958,8.0299e-05,9.9e-06,0.0,0 STARLINK-3784,1 52275U 22041Q   22258.86669402  .00000990  00000-0  80299-4 0  9990,2 52275  53.2201  54.0604 0001678  54.0190 306.0958 15.08842481 22518,6917.873000000001,95.437,540.899,538.577,0.0
52275.0,STARLINK-3784,PAYLOAD,2022-09-16 03:09:34,15.08844826,0.0001696999999999,53.2201,52.871,53.2603,306.8545,0.0001262,1.721e-05,0.0,0 STARLINK-3784,1 52275U 22041Q   22259.13165295  .00001721  00000-0  12620-3 0  9997,2 52275  53.2201  52.8710 0001697  53.2603 306.8545 15.08844826 23766,6917.866,95.437,540.905,538.557,0.0
52275.0,STARLINK-3784,PAYLOAD,2022-09-16 12:41:54,15.08836168,0.000164,53.2202,51.0869,53.2211,306.8932,0.00011392,1.525e-05,0.0,0 STARLINK-3784,1 52275U 22041Q   22259.52909901  .00001525  00000-0  11392-3 0  9997,2 52275  53.2202  51.0869 0001640  53.2211 306.8932 15.08836168 22619,6917.892,95.438,540.8919999999998,538.623,0.0
52275.0,STARLINK-3784,PAYLOAD,2022-09-16 19:03:26,15.08837793,0.0001604,53.22,49.8975,52.8509,307.2629,6.3542e-05,7.23e-06,0.0,0 STARLINK-3784,1 52275U 22041Q   22259.79405745  .00000723  00000-0  63542-4 0  9997,2 52275  53.2200  49.8975 0001604  52.8509 307.2629 15.08837793 22652,6917.887,95.438,540.862,538.643,0.0
52275.0,STARLINK-3784,PAYLOAD,2022-09-17 03:00:22,15.08826008,0.0001592,53.2203,48.411,49.3388,310.7742,-0.00013718,-2.47e-05,0.0,0 STARLINK-3784,1 52275U 22041Q   22260.12526540 -.00002470  00000-0 -13718-3 0  9995,2 52275  53.2203  48.4110 0001592  49.3388 310.7742 15.08826008 23915,6917.9230000000025,95.438,540.889,538.687,0.0
